NORAD_CAT_ID,OBJECT_NAME,OBJECT_TYPE,EPOCH,MEAN_MOTION,ECCENTRICITY,INCLINATION,RA_OF_ASC_NODE,ARG_OF_PERICENTER,MEAN_ANOMALY,BSTAR,MEAN_MOTION_DOT,MEAN_MOTION_DDOT,TLE_LINE0,TLE_LINE1,TLE_LINE2,SEMIMAJOR_AXIS,PERIOD,APOGEE,PERIGEE,DECAYED
55420.0,STARLINK-5604,PAYLOAD,2024-02-21 11:33:06,14.98339972,0.0003047,69.9999,128.4634,269.3667,90.7143,-1.3041e-05,-2.49e-06,0.0,0 STARLINK-5604,1 55420U 23014AF  24052.48131945 -.00000249  00000-0 -13041-4 0  9994,2 55420  69.9999 128.4634 0003047 269.3667  90.7143 14.98339972 59687,6950.162,96.106,574.145,569.909,0.0
55420.0,STARLINK-5604,PAYLOAD,2024-02-21 14:45:22,14.9834017,0.0003028,69.9999,128.1267,269.0897,90.9915,-6.4802e-06,-1.7e-06,0.0,0 STARLINK-5604,1 55420U 23014AF  24052.61483830 -.00000170  00000-0 -64802-5 0  9997,2 55420  69.9999 128.1267 0003028 269.0897  90.9915 14.98340170 60646,6950.161,96.106,574.131,569.922,0.0
55420.0,STARLINK-5604,PAYLOAD,2024-02-22 03:34:26,14.98325326,0.0002943,70.0002,126.7797,268.6548,91.4273,5.8033e-05,5.99e-06,0.0,0 STARLINK-5604,1 55420U 23014AF  24053.14892349  .00000599  00000-0  58033-4 0  9996,2 55420  70.0002 126.7797 0002943 268.6548  91.4273 14.98325326 59781,6950.207,96.107,574.118,570.027,0.0
55420.0,STARLINK-5604,PAYLOAD,2024-02-22 14:47:23,14.98325824,0.0002886,70.0,125.6003,267.2499,92.833,5.8269e-05,6.02e-06,0.0,0 STARLINK-5604,1 55420U 23014AF  24053.61624417  .00000602  00000-0  58269-4 0  9993,2 55420  70.0000 125.6003 0002886 267.2499  92.8330 14.98325824 60798,6950.206,96.107,574.077,570.065,0.0
55420.0,STARLINK-5604,PAYLOAD,2024-02-23 03:36:27,14.98331276,0.000289,69.9999,124.2546,264.0846,95.9984,-4.4996e-05,-6.3e-06,0.0,0 STARLINK-5604,1 55420U 23014AF  24054.15032282 -.00000630  00000-0 -44996-4 0  9991,2 55420  69.9999 124.2546 0002890 264.0846  95.9984 14.98331276 59936,6950.189,96.107,574.063,570.045,0.0
55420.0,STARLINK-5604,PAYLOAD,2024-02-23 11:37:07,14.98365036,0.0002694,69.9997,123.4132,258.5691,101.5165,-0.00055967,-6.77e-05,0.0,0 STARLINK-5604,1 55420U 23014AF  24054.48411443 -.00006770  00000-0 -55967-3 0  9997,2 55420  69.9997 123.4132 0002694 258.5691 101.5165 14.98365036 59985,6950.085,96.105,573.822,570.077,0.0
55420.0,STARLINK-5604,PAYLOAD,2024-02-23 13:13:16,14.98333875,0.0002887,69.9997,123.2447,263.9782,96.1048,-1.6549e-05,-2.9e-06,0.0,0 STARLINK-5604,1 55420U 23014AF  24054.55087973 -.00000290  00000-0 -16549-4 0  9997,2 55420  69.9997 123.2447 0002887 263.9782  96.1048 14.98333875 60939,6950.181,96.107,574.052,570.039,0.0
55420.0,STARLINK-5604,PAYLOAD,2024-02-23 14:49:24,14.98334689,0.0003009,69.9996,123.0764,267.7707,92.3107,-1.8738e-05,-3.17e-06,0.0,0 STARLINK-5604,1 55420U 23014AF  24054.61763912 -.00000317  00000-0 -18738-4 0  9990,2 55420  69.9996 123.0764 0003009 267.7707  92.3107 14.98334689 60000,6950.178,96.107,574.135,569.952,0.0
55420.0,STARLINK-5604,PAYLOAD,2024-02-23 21:13:56,14.9834569,0.0002982,69.9998,122.4032,269.2306,90.8511,-0.00026707,-3.279e-05,0.0,0 STARLINK-5604,1 55420U 23014AF  24054.88467710 -.00003279  00000-0 -26707-3 0  9990,2 55420  69.9998 122.4032 0002982 269.2306  90.8511 14.98345690 60987,6950.144,96.106,574.082,569.937,0.0
55420.0,STARLINK-5604,PAYLOAD,2024-02-24 13:15:16,14.98330012,0.0002525,69.9993,120.7194,259.7775,100.3099,9.7358e-05,1.069e-05,0.0,0 STARLINK-5604,1 55420U 23014AF  24055.55227804  .00001069  00000-0  97358-4 0  9997,2 55420  69.9993 120.7194 0002525 259.7775 100.3099 14.98330012 61081,6950.193,96.107,573.813,570.303,0.0
55420.0,STARLINK-5604,PAYLOAD,2024-02-25 03:40:29,14.98332479,0.0002652,69.9998,119.2052,258.9775,101.1086,2.8865e-05,2.51e-06,0.0,0 STARLINK-5604,1 55420U 23014AF  24056.15311684  .00000251  00000-0  28865-4 0  9993,2 55420  69.9998 119.2052 0002652 258.9775 101.1086 14.98332479 60234,6950.185,96.107,573.893,570.207,0.0
55420.0,STARLINK-5604,PAYLOAD,2024-02-25 11:41:10,14.98310676,0.0002804,69.9993,118.3624,260.4966,99.5876,0.00036165,4.223e-05,0.0,0 STARLINK-5604,1 55420U 23014AF  24056.48692192  .00004223  00000-0  36165-3 0  9999,2 55420  69.9993 118.3624 0002804 260.4966  99.5876 14.98310676 60280,6950.253,96.108,574.067,570.169,0.0
55420.0,STARLINK-5604,PAYLOAD,2024-02-25 13:17:18,14.98310376,0.0002769,69.9994,118.1946,261.7172,98.3673,0.00039036,4.565e-05,0.0,0 STARLINK-5604,1 55420U 23014AF  24056.55368219  .00004565  00000-0  39036-3 0  9996,2 55420  69.9994 118.1946 0002769 261.7172  98.3673 14.98310376 61234,6950.254,96.108,574.043,570.194,0.0
55420.0,STARLINK-5604,PAYLOAD,2024-02-25 21:17:57,14.98346769,0.0002975,69.9995,117.3527,271.5303,88.5515,-0.00028622,-3.508e-05,0.0,0 STARLINK-5604,1 55420U 23014AF  24056.88747374 -.00003508  00000-0 -28622-3 0  9992,2 55420  69.9995 117.3527 0002975 271.5303  88.5515 14.98346769 61281,6950.141,96.106,574.074,569.938,0.0
55420.0,STARLINK-5604,PAYLOAD,2024-02-26 03:42:30,14.98327749,0.0002726,69.9998,116.6807,269.6522,90.4324,-7.9102e-05,-1.037e-05,0.0,0 STARLINK-5604,1 55420U 23014AF  24057.15452267 -.00001037  00000-0 -79102-4 0  9992,2 55420  69.9998 116.6807 0002726 269.6522  90.4324 14.98327749 60389,6950.2,96.107,573.959,570.17,0.0
55420.0,STARLINK-5604,PAYLOAD,2024-02-26 13:19:19,14.98324688,0.0002683,69.9997,115.6705,267.256,92.8292,-6.9391e-05,-9.21e-06,0.0,0 STARLINK-5604,1 55420U 23014AF  24057.55508472 -.00000921  00000-0 -69391-4 0  9996,2 55420  69.9997 115.6705 0002683 267.2560  92.8292 14.98324688 61382,6950.209,96.107,573.939,570.21,0.0
55420.0,STARLINK-5604,PAYLOAD,2024-02-27 03:44:31,14.98330532,0.0002806,69.9995,114.1554,270.3301,89.7536,7.0059e-06,-9e-08,0.0,0 STARLINK-5604,1 55420U 23014AF  24058.15591912 -.00000009  00000-0  70059-5 0  9994,2 55420  69.9995 114.1554 0002806 270.3301  89.7536 14.98330532 60538,6950.191,96.107,574.006,570.106,0.0
55420.0,STARLINK-5604,PAYLOAD,2024-02-27 13:21:19,14.98331483,0.0002823,69.9994,113.1452,270.1762,89.9073,1.6746e-05,1.07e-06,0.0,0 STARLINK-5604,1 55420U 23014AF  24058.55647793  .00000107  00000-0  16746-4 0  9997,2 55420  69.9994 113.1452 0002823 270.1762  89.9073 14.98331483 61536,6950.188,96.107,574.015,570.091,0.0
55420.0,STARLINK-5604,PAYLOAD,2024-02-27 21:22:00,14.98330527,0.0002752,69.9995,112.3021,271.4853,88.5991,1.338e-05,6.7e-07,0.0,0 STARLINK-5604,1 55420U 23014AF  24058.89027868  .00000067  00000-0  13380-4 0  9995,2 55420  69.9995 112.3021 0002752 271.4853  88.5991 14.98330527 61583,6950.191,96.107,573.969,570.144,0.0
55420.0,STARLINK-5604,PAYLOAD,2024-02-28 03:46:32,14.98326952,0.0002829,69.9991,111.6286,270.1195,89.964,7.807e-05,8.39e-06,0.0,0 STARLINK-5604,1 55420U 23014AF  24059.15731876  .00000839  00000-0  78070-4 0  9990,2 55420  69.9991 111.6286 0002829 270.1195  89.9640 14.98326952 60687,6950.202,96.107,574.034,570.101,0.0
55420.0,STARLINK-5604,PAYLOAD,2024-02-28 13:23:20,14.98329436,0.000292,69.9989,110.6188,269.8813,90.2011,6.5245e-05,6.86e-06,0.0,0 STARLINK-5604,1 55420U 23014AF  24059.55787770  .00000686  00000-0  65245-4 0  9998,2 55420  69.9989 110.6188 0002920 269.8813  90.2011 14.98329436 61686,6950.195,96.107,574.089,570.03,0.0
55420.0,STARLINK-5604,PAYLOAD,2024-02-29 03:48:33,14.98331193,0.0002888,69.999,109.1038,270.0695,90.0133,-1.6752e-05,-2.93e-06,0.0,0 STARLINK-5604,1 55420U 23014AF  24060.15871874 -.00000293  00000-0 -16752-4 0  9990,2 55420  69.9990 109.1038 0002888 270.0695  90.0133 14.98331193 60832,6950.189,96.107,574.061,570.047,0.0
55420.0,STARLINK-5604,PAYLOAD,2024-02-29 13:25:21,14.98332213,0.0002925,69.9989,108.0941,270.3179,89.7645,-7.6893e-06,-1.85e-06,0.0,0 STARLINK-5604,1 55420U 23014AF  24060.55927717 -.00000185  00000-0 -76893-5 0  9995,2 55420  69.9989 108.0941 0002925 270.3179  89.7645 14.98332213 61831,6950.186,96.107,574.084,570.018,0.0
55420.0,STARLINK-5604,PAYLOAD,2024-02-29 19:49:53,14.98331006,0.0002912,69.999,107.4207,270.5289,89.5536,-1.1703e-05,-2.33e-06,0.0,0 STARLINK-5604,1 55420U 23014AF  24060.82631763 -.00000233  00000-0 -11703-4 0  9990,2 55420  69.9990 107.4207 0002912 270.5289  89.5536 14.98331006 61871,6950.19,96.107,574.079,570.031,0.0
55420.0,STARLINK-5604,PAYLOAD,2024-03-01 03:50:34,14.98330765,0.000292,69.9988,106.5792,269.9889,90.0935,-1.0572e-05,-2.19e-06,0.0,0 STARLINK-5604,1 55420U 23014AF  24061.16011746 -.00000219  00000-0 -10572-4 0  9998,2 55420  69.9988 106.5792 0002920 269.9889  90.0935 14.98330765 60986,6950.191,96.107,574.085,570.026,0.0
55420.0,STARLINK-5604,PAYLOAD,2024-03-01 13:27:22,14.98332294,0.0002897,69.9989,105.5695,268.8157,91.267,6.6849e-06,-1.3e-07,0.0,0 STARLINK-5604,1 55420U 23014AF  24061.56067548 -.00000013  00000-0  66849-5 0  9993,2 55420  69.9989 105.5695 0002897 268.8157  91.2670 14.98332294 61986,6950.186,96.107,574.064,570.037,0.0
55420.0,STARLINK-5604,PAYLOAD,2024-03-02 03:52:34,14.98331095,0.0002894,69.9987,104.0545,269.0434,91.0393,-4.8274e-06,-1.51e-06,0.0,0 STARLINK-5604,1 55420U 23014AF  24062.16151581 -.00000151  00000-0 -48274-5 0  9997,2 55420  69.9987 104.0545 0002894 269.0434  91.0393 14.98331095 61135,6950.19,96.107,574.066,570.043,0.0
55420.0,STARLINK-5604,PAYLOAD,2024-03-02 11:53:15,14.98331601,0.0002822,69.9989,103.2129,265.5677,94.5159,1.7979e-05,1.22e-06,0.0,0 STARLINK-5604,1 55420U 23014AF  24062.49531428  .00000122  00000-0  17979-4 0  9998,2 55420  69.9989 103.2129 0002822 265.5677  94.5159 14.98331601 62128,6950.188,96.107,574.014,570.092,0.0
55420.0,STARLINK-5604,PAYLOAD,2024-03-03 03:54:36,14.983261,0.0002967,69.9993,101.5302,266.1697,93.9122,-6.3958e-05,-8.56e-06,0.0,0 STARLINK-5604,1 55420U 23014AF  24063.16292009 -.00000856  00000-0 -63958-4 0  9996,2 55420  69.9993 101.5302 0002967 266.1697  93.9122 14.98326100 61283,6950.205,96.107,574.132,570.008,0.0
55420.0,STARLINK-5604,PAYLOAD,2024-03-03 11:55:16,14.98324724,0.0002933,69.9988,100.6876,267.7073,92.375,-1.8706e-06,-1.15e-06,0.0,0 STARLINK-5604,1 55420U 23014AF  24063.49672004 -.00000115  00000-0 -18706-5 0  9999,2 55420  69.9988 100.6876 0002933 267.7073  92.3750 14.98324724 62271,6950.209,96.107,574.113,570.036,0.0
